ISS (ZARYA)             
1 25544U 98067A   26085.80952179  .00012890  00000+0  24531-3 0  9999
2 25544  51.6341 347.7277 0006205 236.0994 123.9405 15.48566257558983
POISK                   
1 36086U 09060A   26085.80952179  .00012890  00000+0  24531-3 0  9997
2 36086  51.6341 347.7277 0006205 236.0994 123.9405 15.48566257557435
CSS (TIANHE)            
1 48274U 21035A   26085.92437350  .00022168  00000+0  25435-3 0  9990
2 48274  41.4668 103.2237 0004238  32.2282 327.8815 15.61531781280305
ISS (NAUKA)             
1 49044U 21066A   26085.80952179  .00012890  00000+0  24531-3 0  9995
2 49044  51.6341 347.7277 0006205 236.0994 123.9405 15.48566257557477
FREGAT DEB              
1 49271U 11037PF  26085.84634023  .00010762  00000+0  15290-1 0  9999
2 49271  51.6481 249.2403 0962037  98.7334 272.3546 12.40708972214821
CSS (WENTIAN)           
1 53239U 22085A   26085.92437350  .00022168  00000+0  25435-3 0  9993
2 53239  41.4668 103.2237 0004238  32.2282 327.8815 15.61531781280289
CSS (MENGTIAN)          
1 54216U 22143A   26085.92437350  .00022168  00000+0  25435-3 0  9994
2 54216  41.4668 103.2237 0004238  32.2282 327.8815 15.61531781280285
TIANZHOU-9              
1 64786U 25149A   26085.92437350  .00022168  00000+0  25435-3 0  9996
2 64786  41.4668 103.2237 0004238  32.2282 327.8815 15.61531781280288
PROGRESS-MS 32          
1 65586U 25204A   26085.80952179  .00012890  00000+0  24531-3 0  9992
2 65586  51.6341 347.7277 0006205 236.0994 123.9405 15.48566257554507
YOTSUBA-KULOVER         
1 65941U 98067XN  26085.91912599  .00352967  57158-4  11609-2 0  9992
2 65941  51.6191 327.3500 0005386 197.9643 162.1173 15.89955766 26236
BOTAN                   
1 65943U 98067XQ  26085.92937252  .00343790  00000+0  11247-2 0  9999
2 65943  51.6225 327.4427 0005946 196.4214 163.6600 15.89142041 26230
HRC MONOBLOCK CAMERA    
1 66052U 98067XR  26085.96181341  .00053427  00000+0  55633-3 0  9998
2 66052  51.6293 338.2415 0003811 172.2283 187.8771 15.64017398 25090
